[{"OBJECT_NAME":"STARLINK-5496","OBJECT_ID":"2023-083L","EPOCH":"2026-03-08T02:50:39.079104","MEAN_MOTION":15.02537731,"ECCENTRICITY":0.00013242,"INCLINATION":43.004,"RA_OF_ASC_NODE":90.3496,"ARG_OF_PERICENTER":265.0186,"MEAN_ANOMALY":95.0505,"EPHEMERIS_TYPE":0,"CLASSIFICATION_TYPE":"U","NORAD_CAT_ID":56886,"ELEMENT_SET_NO":999,"REV_AT_EPOCH":15143,"BSTAR":7.0957663e-5,"MEAN_MOTION_DOT":7.55e-6,"MEAN_MOTION_DDOT":0},{"OBJECT_NAME":"CZ-6A DEB","OBJECT_ID":"2022-151CD","EPOCH":"2026-03-09T04:34:52.178880","MEAN_MOTION":15.04926808,"ECCENTRICITY":0.00436133,"INCLINATION":98.6267,"RA_OF_ASC_NODE":153.8749,"ARG_OF_PERICENTER":159.2339,"MEAN_ANOMALY":201.0669,"EPHEMERIS_TYPE":0,"CLASSIFICATION_TYPE":"U","NORAD_CAT_ID":54334,"ELEMENT_SET_NO":999,"REV_AT_EPOCH":17669,"BSTAR":0.0057373504,"MEAN_MOTION_DOT":0.00083812,"MEAN_MOTION_DDOT":0}]
